NORAD_CAT_ID,OBJECT_NAME,OBJECT_TYPE,EPOCH,MEAN_MOTION,ECCENTRICITY,INCLINATION,RA_OF_ASC_NODE,ARG_OF_PERICENTER,MEAN_ANOMALY,BSTAR,MEAN_MOTION_DOT,MEAN_MOTION_DDOT,TLE_LINE0,TLE_LINE1,TLE_LINE2,SEMIMAJOR_AXIS,PERIOD,APOGEE,PERIGEE,DECAYED
53622.0,STARLINK-4568,PAYLOAD,2024-03-19 16:19:11,15.08850899,0.0001425,53.2162,225.9759,86.6444,273.4711,0.00021094,3.072e-05,0.0,0 STARLINK-4568,1 53622U 22104AL  24079.67999697  .00003072  00000-0  21094-3 0  9992,2 53622  53.2162 225.9759 0001425  86.6444 273.4711 15.08850899 86374,6917.847,95.437,540.698,538.726,0.0
53622.0,STARLINK-4568,PAYLOAD,2024-03-20 09:48:26,15.08842872,0.0001397,53.2166,222.7046,93.101,267.0142,0.00010199,1.336e-05,0.0,0 STARLINK-4568,1 53622U 22104AL  24080.40864021  .00001336  00000-0  10199-3 0  9992,2 53622  53.2166 222.7046 0001397  93.1010 267.0142 15.08842872 86483,6917.872,95.437,540.703,538.77,0.0
53622.0,STARLINK-4568,PAYLOAD,2024-03-20 12:59:13,15.08829908,0.0001303,53.2164,222.1092,92.6354,267.4787,-0.00015276,-2.718e-05,0.0,0 STARLINK-4568,1 53622U 22104AL  24080.54112682 -.00002718  00000-0 -15276-3 0  9994,2 53622  53.2164 222.1092 0001303  92.6354 267.4787 15.08829908 87180,6917.911,95.438,540.678,538.875,0.0
53622.0,STARLINK-4568,PAYLOAD,2024-03-20 16:09:59,15.08831176,0.0001421,53.2165,221.5142,98.6343,261.481,-0.00013408,-2.421e-05,0.0,0 STARLINK-4568,1 53622U 22104AL  24080.67360655 -.00002421  00000-0 -13408-3 0  9999,2 53622  53.2165 221.5142 0001421  98.6343 261.4810 15.08831176 86523,6917.907,95.438,540.755,538.789,0.0
53622.0,STARLINK-4568,PAYLOAD,2024-03-21 12:50:00,15.08837962,0.0001356,53.2165,217.6481,101.207,258.9075,2.1805e-05,5.9e-07,0.0,0 STARLINK-4568,1 53622U 22104AL  24081.53472628  .00000059  00000-0  21805-4 0  9993,2 53622  53.2165 217.6481 0001356 101.2070 258.9075 15.08837962 86657,6917.887,95.438,540.69,538.814,0.0
53622.0,STARLINK-4568,PAYLOAD,2024-03-21 14:25:23,15.08838527,0.000136,53.2163,217.3509,91.7665,268.3483,0.00012181,1.651e-05,0.0,0 STARLINK-4568,1 53622U 22104AL  24081.60096648  .00001651  00000-0  12181-3 0  9990,2 53622  53.2163 217.3509 0001360  91.7665 268.3483 15.08838527 87344,6917.885,95.438,540.691,538.809,0.0
53622.0,STARLINK-4568,PAYLOAD,2024-03-22 12:40:47,15.08851918,0.0001422,53.2168,213.1901,100.3916,259.7236,0.00048937,7.511e-05,0.0,0 STARLINK-4568,1 53622U 22104AL  24082.52832281  .00007511  00000-0  48937-3 0  9992,2 53622  53.2168 213.1901 0001422 100.3916 259.7236 15.08851918 86803,6917.844,95.437,540.693,538.725,0.0
53622.0,STARLINK-4568,PAYLOAD,2024-03-22 14:16:10,15.08856117,0.0001423,53.2167,212.8929,100.6985,259.4168,0.00052694,8.112e-05,0.0,0 STARLINK-4568,1 53622U 22104AL  24082.59456152  .00008112  00000-0  52694-3 0  9991,2 53622  53.2167 212.8929 0001423 100.6985 259.4168 15.08856117 87491,6917.831,95.437,540.681,538.712,0.0
53622.0,STARLINK-4568,PAYLOAD,2024-03-23 12:31:34,15.08842512,0.0001598,53.2165,208.7301,122.8963,237.2183,8.4677e-05,1.06e-05,0.0,0 STARLINK-4568,1 53622U 22104AL  24083.52192369  .00001060  00000-0  84677-4 0  9994,2 53622  53.2165 208.7301 0001598 122.8963 237.2183 15.08842512 86957,6917.873,95.437,540.843,538.632,0.0
53622.0,STARLINK-4568,PAYLOAD,2024-03-23 15:42:20,15.0883907,0.0001354,53.2158,208.1327,114.767,245.3463,-2.1369e-05,-6.28e-06,0.0,0 STARLINK-4568,1 53622U 22104AL  24083.65440488 -.00000628  00000-0 -21369-4 0  9996,2 53622  53.2158 208.1327 0001354 114.7670 245.3463 15.08839070 87650,6917.883,95.438,540.685,538.812,0.0
53622.0,STARLINK-4568,PAYLOAD,2024-03-24 13:57:44,15.08848042,0.0001418,53.2165,203.9718,106.4287,253.6861,0.00038703,5.878e-05,0.0,0 STARLINK-4568,1 53622U 22104AL  24084.58176659  .00005878  00000-0  38703-3 0  9994,2 53622  53.2165 203.9718 0001418 106.4287 253.6861 15.08848042 87796,6917.856,95.437,540.702,538.74,0.0
53622.0,STARLINK-4568,PAYLOAD,2024-03-24 17:08:30,15.08855493,0.0001364,53.2162,203.3655,95.5606,264.5541,0.00056875,8.779e-05,0.0,0 STARLINK-4568,1 53622U 22104AL  24084.71424369  .00008779  00000-0  56875-3 0  9996,2 53622  53.2162 203.3655 0001364  95.5606 264.5541 15.08855493 87132,6917.833,95.437,540.642,538.754,0.0
53622.0,STARLINK-4568,PAYLOAD,2024-03-25 13:48:32,15.08822644,0.0001136,53.2149,199.5132,95.7835,264.3287,-0.00027916,-4.726e-05,0.0,0 STARLINK-4568,1 53622U 22104AL  24085.57537298 -.00004726  00000-0 -27916-3 0  9991,2 53622  53.2149 199.5132 0001136  95.7835 264.3287 15.08822644 87267,6917.933,95.439,540.584,539.013,0.0
53622.0,STARLINK-4568,PAYLOAD,2024-03-26 13:39:20,15.08831442,0.0001312,53.218,195.0486,91.9727,268.1416,0.00060522,9.355e-05,0.0,0 STARLINK-4568,1 53622U 22104AL  24086.56898418  .00009355  00000-0  60522-3 0  9996,2 53622  53.2180 195.0486 0001312  91.9727 268.1416 15.08831442 87418,6917.907,95.438,540.679,538.864,0.0
53622.0,STARLINK-4568,PAYLOAD,2024-03-27 13:30:07,15.08845224,0.0001636,53.2178,190.5888,97.7308,262.387,0.00042528,6.488e-05,0.0,0 STARLINK-4568,1 53622U 22104AL  24087.56258211  .00006488  00000-0  42528-3 0  9998,2 53622  53.2178 190.5888 0001636  97.7308 262.3870 15.08845224 88244,6917.864,95.437,540.861,538.598,0.0
53622.0,STARLINK-4568,PAYLOAD,2024-03-27 16:40:53,15.08849725,0.000166,53.2168,189.9939,95.1208,264.9974,0.00046901,7.186e-05,0.0,0 STARLINK-4568,1 53622U 22104AL  24087.69506055  .00007186  00000-0  46901-3 0  9999,2 53622  53.2168 189.9939 0001660  95.1208 264.9974 15.08849725 87589,6917.851,95.437,540.864,538.567,0.0
53622.0,STARLINK-4568,PAYLOAD,2024-03-28 13:20:54,15.08841122,0.0001448,53.217,186.126,96.7561,263.3596,0.00017477,2.495e-05,0.0,0 STARLINK-4568,1 53622U 22104AL  24088.55618057  .00002495  00000-0  17477-3 0  9995,2 53622  53.2170 186.1260 0001448  96.7561 263.3596 15.08841122 87712,6917.877,95.437,540.744,538.74,0.0
53622.0,STARLINK-4568,PAYLOAD,2024-03-29 11:36:17,15.08841075,0.0001551,53.2174,181.9676,93.3306,266.7864,2.1109e-05,4.8e-07,0.0,0 STARLINK-4568,1 53622U 22104AL  24089.48353620  .00000048  00000-0  21109-4 0  9990,2 53622  53.2174 181.9676 0001551  93.3306 266.7864 15.08841075 88538,6917.877,95.437,540.815,538.669,0.0
53622.0,STARLINK-4568,PAYLOAD,2024-03-29 22:43:58,15.0886129,0.0001353,53.2172,179.8814,79.0852,281.0292,0.00022023,3.221e-05,0.0,0 STARLINK-4568,1 53622U 22104AL  24089.94720285  .00003221  00000-0  22023-3 0  9997,2 53622  53.2172 179.8814 0001353  79.0852 281.0292 15.08861290 88607,6917.815,95.436,540.616,538.744,0.0
53622.0,STARLINK-4568,PAYLOAD,2024-03-30 05:05:32,15.08840263,0.000224,53.2166,178.6965,89.3219,270.803,-4.4939e-07,-2.95e-06,0.0,0 STARLINK-4568,1 53622U 22104AL  24090.21217620 -.00000295  00000-0 -44939-6 0  9996,2 53622  53.2166 178.6965 0002240  89.3219 270.8030 15.08840263 87962,6917.88,95.438,541.294,538.195,0.0
53622.0,STARLINK-4568,PAYLOAD,2024-03-30 13:02:28,15.08828846,0.000148,53.2168,177.2113,100.956,259.1599,-8.6195e-05,-1.659e-05,0.0,0 STARLINK-4568,1 53622U 22104AL  24090.54338082 -.00001659  00000-0 -86195-4 0  9991,2 53622  53.2168 177.2113 0001480 100.9560 259.1599 15.08828846 88018,6917.914,95.438,540.803,538.756,0.0
53622.0,STARLINK-4568,PAYLOAD,2024-03-30 22:34:46,15.08846225,0.0001593,53.2178,175.4269,102.4577,257.6593,0.00010674,1.411e-05,0.0,0 STARLINK-4568,1 53622U 22104AL  24090.94081398  .00001411  00000-0  10674-3 0  9992,2 53622  53.2178 175.4269 0001593 102.4577 257.6593 15.08846225 88750,6917.861,95.437,540.828,538.624,0.0
53622.0,STARLINK-4568,PAYLOAD,2024-03-31 12:53:14,15.08842922,0.0001719,53.2171,172.748,93.3741,266.7448,0.00011428,1.531e-05,0.0,0 STARLINK-4568,1 53622U 22104AL  24091.53697712  .00001531  00000-0  11428-3 0  9992,2 53622  53.2171 172.7480 0001719  93.3741 266.7448 15.08842922 88164,6917.871,95.437,540.926,538.547,0.0
53622.0,STARLINK-4568,PAYLOAD,2024-03-31 22:25:33,15.08852218,0.0001757,53.2176,170.9644,86.0958,274.0235,0.00016058,2.269e-05,0.0,0 STARLINK-4568,1 53622U 22104AL  24091.93441164  .00002269  00000-0  16058-3 0  9997,2 53622  53.2176 170.9644 0001757  86.0958 274.0235 15.08852218 88909,6917.843,95.437,540.924,538.493,0.0
53622.0,STARLINK-4568,PAYLOAD,2024-04-01 04:47:06,15.08824616,0.0001579,53.2173,169.7772,97.9065,262.2106,-3.1399e-05,-7.87e-06,0.0,0 STARLINK-4568,1 53622U 22104AL  24092.19938401 -.00000787  00000-0 -31399-4 0  9992,2 53622  53.2173 169.7772 0001579  97.9065 262.2106 15.08824616 88262,6917.927,95.439,540.885,538.7,0.0
53622.0,STARLINK-4568,PAYLOAD,2024-04-01 12:44:02,15.08833199,0.0001429,53.2154,168.2884,98.852,261.2634,4.878e-05,4.88e-06,0.0,0 STARLINK-4568,1 53622U 22104AL  24092.53058099  .00000488  00000-0  48780-4 0  9994,2 53622  53.2154 168.2884 0001429  98.8520 261.2634 15.08833199 88316,6917.901,95.438,540.755,538.778,0.0
53622.0,STARLINK-4568,PAYLOAD,2024-04-01 14:19:25,15.08837267,0.0001524,53.2162,167.9916,98.3987,261.7178,0.00019616,2.835e-05,0.0,0 STARLINK-4568,1 53622U 22104AL  24092.59682125  .00002835  00000-0  19616-3 0  9996,2 53622  53.2162 167.9916 0001524  98.3987 261.7178 15.08837267 89000,6917.889,95.438,540.808,538.699,0.0
53622.0,STARLINK-4568,PAYLOAD,2024-04-02 10:59:26,15.0884586,0.0001548,53.2156,164.1259,95.7188,264.3981,0.00070934,0.00011021,0.0,0 STARLINK-4568,1 53622U 22104AL  24093.45794422  .00011021  00000-0  70934-3 0  9993,2 53622  53.2156 164.1259 0001548  95.7188 264.3981 15.08845860 89135,6917.862,95.437,540.798,538.657,0.0
53622.0,STARLINK-4568,PAYLOAD,2024-04-02 22:07:08,15.08855527,0.0001528,53.2156,162.0436,95.6683,264.4483,0.00072363,0.00011252,0.0,0 STARLINK-4568,1 53622U 22104AL  24093.92162055  .00011252  00000-0  72363-3 0  9990,2 53622  53.2156 162.0436 0001528  95.6683 264.4483 15.08855527 89203,6917.833,95.437,540.755,538.641,0.0
53622.0,STARLINK-4568,PAYLOAD,2024-04-03 10:50:13,15.08844458,0.0001762,53.2175,159.664,100.0611,260.058,0.00015115,2.119e-05,0.0,0 STARLINK-4568,1 53622U 22104AL  24094.45154145  .00002119  00000-0  15115-3 0  9994,2 53622  53.2175 159.6640 0001762 100.0611 260.0580 15.08844458 88609,6917.867,95.437,540.951,538.513,0.0
